STARLINK-30715          
1 57941U 23148G   26068.27977187 -.00003208  00000+0 -96318-4 0  9999
2 57941  53.1626  15.8909 0001146  93.0040 267.1092 15.30177130138503
TOMORROW-S2             
1 60485U 24149T   26068.75188364  .00008133  00000+0  27683-3 0  9990
2 60485  97.3857 150.0385 0001648 234.3331 125.7757 15.30674935 86869
